{
    "links": {
        "self": "http://www.neowsapp.com/rest/v1/neo/3826635?api_key=iIulBulltgU6a56xZRHN4H3l9WmuAYTsLGpBGhQ2"
    },
    "id": "3826635",
    "neo_reference_id": "3826635",
    "name": "(2018 PK8)",
    "designation": "2018 PK8",
    "nasa_jpl_url": "http://ssd.jpl.nasa.gov/sbdb.cgi?sstr=3826635",
    "absolute_magnitude_h": 23.1,
    "estimated_diameter": {
        "kilometers": {
            "estimated_diameter_min": 0.063760979,
            "estimated_diameter_max": 0.1425738833
        },
        "meters": {
            "estimated_diameter_min": 63.7609789875,
            "estimated_diameter_max": 142.5738833281
        },
        "miles": {
            "estimated_diameter_min": 0.0396192233,
            "estimated_diameter_max": 0.0885912765
        },
        "feet": {
            "estimated_diameter_min": 209.1895703015,
            "estimated_diameter_max": 467.7620993781
        }
    },
    "is_potentially_hazardous_asteroid": false,
    "close_approach_data": [
        {
            "close_approach_date": "2018-08-03",
            "close_approach_date_full": "2018-Aug-03 16:57",
            "epoch_date_close_approach": 1533315420000,
            "relative_velocity": {
                "kilometers_per_second": "16.0336105519",
                "kilometers_per_hour": "57720.9979869556",
                "miles_per_hour": "35865.5834436169"
            },
            "miss_distance": {
                "astronomical": "0.1159614633",
                "lunar": "45.1090092237",
                "kilometers": "17347587.911763171",
                "miles": "10779291.2859909198"
            },
            "orbiting_body": "Earth"
        }
    ],
    "orbital_data": {
        "orbit_id": "1",
        "orbit_determination_date": "2018-08-08 16:12:04",
        "first_observation_date": "2018-08-05",
        "last_observation_date": "2018-08-07",
        "data_arc_in_days": 2,
        "observations_used": 13,
        "orbit_uncertainty": "9",
        "minimum_orbit_intersection": ".109144",
        "jupiter_tisserand_invariant": "4.532",
        "epoch_osculation": "2458336.5",
        "eccentricity": ".2113393473872588",
        "semi_major_axis": "1.424492405289908",
        "inclination": "30.70274410114731",
        "ascending_node_longitude": "132.197113930214",
        "orbital_period": "620.9957587595084",
        "perihelion_distance": "1.123441109997832",
        "perihelion_argument": "176.9912350159153",
        "aphelion_distance": "1.725543700581983",
        "perihelion_time": "2458329.783483889902",
        "mean_anomaly": "3.89365912009662",
        "mean_motion": ".5797141041979587",
        "equinox": "J2000",
        "orbit_class": {
            "orbit_class_type": "AMO",
            "orbit_class_description": "Near-Earth asteroid orbits similar to that of 1221 Amor",
            "orbit_class_range": "1.017 AU < q (perihelion) < 1.3 AU"
        }
    },
    "is_sentry_object": false
}